[
  {
    "COMMENT": "GENERATED VIA SPACETRACK.ORG API",
    "ORIGINATOR": "18 SPCS",
    "NORAD_CAT_ID": "46984",
    "OBJECT_NAME": "S6 MICHAEL FREILICH",
    "OBJECT_TYPE": "PAYLOAD",
    "CLASSIFICATION_TYPE": "U",
    "INTLDES": "20086A",
    "EPOCH": "2023-08-29 01:21:22",
    "EPOCH_MICROSECONDS": "489056",
    "MEAN_MOTION": "12.80929332",
    "ECCENTRICITY": "0.0007864",
    "INCLINATION": "66.0402",
    "RA_OF_ASC_NODE": "100.107",
    "ARG_OF_PERICENTER": "268.5565",
    "MEAN_ANOMALY": "91.455",
    "EPHEMERIS_TYPE": "0",
    "ELEMENT_SET_NO": "999",
    "REV_AT_EPOCH": "12941",
    "BSTAR": "0.0001099",
    "MEAN_MOTION_DOT": "-0.00000036",
    "MEAN_MOTION_DDOT": "0",
    "FILE": "3991790",
    "TLE_LINE0": "0 S6 MICHAEL FREILICH",
    "TLE_LINE1": "1 46984U 20086A   23241.05651029 -.00000036  00000-0  10990-3 0  9999",
    "TLE_LINE2": "2 46984  66.0402 100.1070 0007864 268.5565  91.4550 12.80929332129412",
    "OBJECT_ID": "2020-086A",
    "OBJECT_NUMBER": "46984",
    "SEMIMAJOR_AXIS": "7715.873",
    "PERIOD": "112.418",
    "APOGEE": "1343.806",
    "PERIGEE": "1331.670",
    "DECAYED": "0"
  },
  {
    "COMMENT": "GENERATED VIA SPACETRACK.ORG API",
    "ORIGINATOR": "18 SPCS",
    "NORAD_CAT_ID": "46984",
    "OBJECT_NAME": "S6 MICHAEL FREILICH",
    "OBJECT_TYPE": "PAYLOAD",
    "CLASSIFICATION_TYPE": "U",
    "INTLDES": "20086A",
    "EPOCH": "2023-08-29 21:58:05",
    "EPOCH_MICROSECONDS": "894400",
    "MEAN_MOTION": "12.80929357",
    "ECCENTRICITY": "0.0007858",
    "INCLINATION": "66.0402",
    "RA_OF_ASC_NODE": "98.323",
    "ARG_OF_PERICENTER": "268.4835",
    "MEAN_ANOMALY": "91.528",
    "EPHEMERIS_TYPE": "0",
    "ELEMENT_SET_NO": "999",
    "REV_AT_EPOCH": "12939",
    "BSTAR": "0.00013042",
    "MEAN_MOTION_DOT": "-0.00000031",
    "MEAN_MOTION_DDOT": "0",
    "FILE": "3992439",
    "TLE_LINE0": "0 S6 MICHAEL FREILICH",
    "TLE_LINE1": "1 46984U 20086A   23241.91534600 -.00000031  00000-0  13042-3 0  9995",
    "TLE_LINE2": "2 46984  66.0402  98.3230 0007858 268.4835  91.5280 12.80929357129395",
    "OBJECT_ID": "2020-086A",
    "OBJECT_NUMBER": "46984",
    "SEMIMAJOR_AXIS": "7715.873",
    "PERIOD": "112.418",
    "APOGEE": "1343.801",
    "PERIGEE": "1331.675",
    "DECAYED": "0"
  },
  {
    "COMMENT": "GENERATED VIA SPACETRACK.ORG API",
    "ORIGINATOR": "18 SPCS",
    "NORAD_CAT_ID": "46984",
    "OBJECT_NAME": "S6 MICHAEL FREILICH",
    "OBJECT_TYPE": "PAYLOAD",
    "CLASSIFICATION_TYPE": "U",
    "INTLDES": "20086A",
    "EPOCH": "2023-08-30 16:42:23",
    "EPOCH_MICROSECONDS": "533344",
    "MEAN_MOTION": "12.8092938",
    "ECCENTRICITY": "0.000786",
    "INCLINATION": "66.0402",
    "RA_OF_ASC_NODE": "96.7013",
    "ARG_OF_PERICENTER": "268.4926",
    "MEAN_ANOMALY": "91.5189",
    "EPHEMERIS_TYPE": "0",
    "ELEMENT_SET_NO": "999",
    "REV_AT_EPOCH": "12962",
    "BSTAR": "0.00012716",
    "MEAN_MOTION_DOT": "-0.00000032",
    "MEAN_MOTION_DDOT": "0",
    "FILE": "3993237",
    "TLE_LINE0": "0 S6 MICHAEL FREILICH",
    "TLE_LINE1": "1 46984U 20086A   23242.69610571 -.00000032  00000-0  12716-3 0  9991",
    "TLE_LINE2": "2 46984  66.0402  96.7013 0007860 268.4926  91.5189 12.80929380129620",
    "OBJECT_ID": "2020-086A",
    "OBJECT_NUMBER": "46984",
    "SEMIMAJOR_AXIS": "7715.873",
    "PERIOD": "112.418",
    "APOGEE": "1343.802",
    "PERIGEE": "1331.673",
    "DECAYED": "0"
  },
  {
    "COMMENT": "GENERATED VIA SPACETRACK.ORG API",
    "ORIGINATOR": "18 SPCS",
    "NORAD_CAT_ID": "46984",
    "OBJECT_NAME": "S6 MICHAEL FREILICH",
    "OBJECT_TYPE": "PAYLOAD",
    "CLASSIFICATION_TYPE": "U",
    "INTLDES": "20086A",
    "EPOCH": "2023-08-30 20:27:15",
    "EPOCH_MICROSECONDS": "63552",
    "MEAN_MOTION": "12.80929384",
    "ECCENTRICITY": "0.000785",
    "INCLINATION": "66.0402",
    "RA_OF_ASC_NODE": "96.3769",
    "ARG_OF_PERICENTER": "268.4595",
    "MEAN_ANOMALY": "91.5521",
    "EPHEMERIS_TYPE": "0",
    "ELEMENT_SET_NO": "999",
    "REV_AT_EPOCH": "12951",
    "BSTAR": "0.00013198",
    "MEAN_MOTION_DOT": "-0.00000031",
    "MEAN_MOTION_DDOT": "0",
    "FILE": "3993321",
    "TLE_LINE0": "0 S6 MICHAEL FREILICH",
    "TLE_LINE1": "1 46984U 20086A   23242.85225768 -.00000031  00000-0  13198-3 0  9993",
    "TLE_LINE2": "2 46984  66.0402  96.3769 0007850 268.4595  91.5521 12.80929384129517",
    "OBJECT_ID": "2020-086A",
    "OBJECT_NUMBER": "46984",
    "SEMIMAJOR_AXIS": "7715.873",
    "PERIOD": "112.418",
    "APOGEE": "1343.795",
    "PERIGEE": "1331.681",
    "DECAYED": "0"
  },
  {
    "COMMENT": "GENERATED VIA SPACETRACK.ORG API",
    "ORIGINATOR": "18 SPCS",
    "NORAD_CAT_ID": "46984",
    "OBJECT_NAME": "S6 MICHAEL FREILICH",
    "OBJECT_TYPE": "PAYLOAD",
    "CLASSIFICATION_TYPE": "U",
    "INTLDES": "20086A",
    "EPOCH": "2023-08-31 18:56:24",
    "EPOCH_MICROSECONDS": "222336",
    "MEAN_MOTION": "12.8092943",
    "ECCENTRICITY": "0.0007846",
    "INCLINATION": "66.0401",
    "RA_OF_ASC_NODE": "94.4308",
    "ARG_OF_PERICENTER": "268.4783",
    "MEAN_ANOMALY": "91.5333",
    "EPHEMERIS_TYPE": "0",
    "ELEMENT_SET_NO": "999",
    "REV_AT_EPOCH": "12963",
    "BSTAR": "0.0001149",
    "MEAN_MOTION_DOT": "-0.00000035",
    "MEAN_MOTION_DDOT": "0",
    "FILE": "3994074",
    "TLE_LINE0": "0 S6 MICHAEL FREILICH",
    "TLE_LINE1": "1 46984U 20086A   23243.78916924 -.00000035  00000-0  11490-3 0  9994",
    "TLE_LINE2": "2 46984  66.0401  94.4308 0007846 268.4783  91.5333 12.80929430129634",
    "OBJECT_ID": "2020-086A",
    "OBJECT_NUMBER": "46984",
    "SEMIMAJOR_AXIS": "7715.872",
    "PERIOD": "112.418",
    "APOGEE": "1343.791",
    "PERIGEE": "1331.684",
    "DECAYED": "0"
  },
  {
    "COMMENT": "GENERATED VIA SPACETRACK.ORG API",
    "ORIGINATOR": "18 SPCS",
    "NORAD_CAT_ID": "46984",
    "OBJECT_NAME": "S6 MICHAEL FREILICH",
    "OBJECT_TYPE": "PAYLOAD",
    "CLASSIFICATION_TYPE": "U",
    "INTLDES": "20086A",
    "EPOCH": "2023-08-31 18:56:24",
    "EPOCH_MICROSECONDS": "222336",
    "MEAN_MOTION": "12.8092943",
    "ECCENTRICITY": "0.0007846",
    "INCLINATION": "66.0401",
    "RA_OF_ASC_NODE": "94.4308",
    "ARG_OF_PERICENTER": "268.4783",
    "MEAN_ANOMALY": "91.5333",
    "EPHEMERIS_TYPE": "0",
    "ELEMENT_SET_NO": "999",
    "REV_AT_EPOCH": "12976",
    "BSTAR": "0.0001149",
    "MEAN_MOTION_DOT": "-0.00000035",
    "MEAN_MOTION_DDOT": "0",
    "FILE": "3994207",
    "TLE_LINE0": "0 S6 MICHAEL FREILICH",
    "TLE_LINE1": "1 46984U 20086A   23243.78916924 -.00000035  00000-0  11490-3 0  9994",
    "TLE_LINE2": "2 46984  66.0401  94.4308 0007846 268.4783  91.5333 12.80929430129768",
    "OBJECT_ID": "2020-086A",
    "OBJECT_NUMBER": "46984",
    "SEMIMAJOR_AXIS": "7715.872",
    "PERIOD": "112.418",
    "APOGEE": "1343.791",
    "PERIGEE": "1331.684",
    "DECAYED": "0"
  }
]